NORAD_CAT_ID,OBJECT_NAME,OBJECT_TYPE,EPOCH,MEAN_MOTION,ECCENTRICITY,INCLINATION,RA_OF_ASC_NODE,ARG_OF_PERICENTER,MEAN_ANOMALY,BSTAR,MEAN_MOTION_DOT,MEAN_MOTION_DDOT,TLE_LINE0,TLE_LINE1,TLE_LINE2,SEMIMAJOR_AXIS,PERIOD,APOGEE,PERIGEE,DECAYED
52306.0,STARLINK-3747,PAYLOAD,2024-08-16 01:09:23,15.08858934,0.0001501,53.2158,130.8314,87.5318,272.5846,0.00010069,1.316e-05,0.0,0 STARLINK-3747,1 52306U 22041AX  24229.04819003  .00001316  00000-0  10069-3 0  9999,2 52306  53.2158 130.8314 0001501  87.5318 272.5846 15.08858934129716,6917.823,95.436,540.726,538.649,0.0
52306.0,STARLINK-3747,PAYLOAD,2024-08-16 21:49:24,15.08844608,0.0001449,53.2157,126.9626,86.9235,273.1923,1.9447e-05,2.2e-07,0.0,0 STARLINK-3747,1 52306U 22041AX  24229.90931289  .00000022  00000-0  19447-4 0  9998,2 52306  53.2157 126.9626 0001449  86.9235 273.1923 15.08844608129849,6917.866,95.437,540.734,538.729,0.0
52306.0,STARLINK-3747,PAYLOAD,2024-08-17 02:35:33,15.08851006,0.0001546,53.2157,126.0703,87.6957,272.4212,0.0002962,4.431e-05,0.0,0 STARLINK-3747,1 52306U 22041AX  24230.10803155  .00004431  00000-0  29620-3 0  9993,2 52306  53.2157 126.0703 0001546  87.6957 272.4212 15.08851006129879,6917.847,95.437,540.781,538.642,0.0
52306.0,STARLINK-3747,PAYLOAD,2024-08-17 21:40:11,15.08839749,0.0001588,53.2168,122.498,91.826,268.2914,0.00019321,2.788e-05,0.0,0 STARLINK-3747,1 52306U 22041AX  24230.90291655  .00002788  00000-0  19321-3 0  9997,2 52306  53.2168 122.4980 0001588  91.8260 268.2914 15.08839749129993,6917.881,95.438,540.845,538.648,0.0
52306.0,STARLINK-3747,PAYLOAD,2024-08-18 02:26:19,15.08892174,0.0001216,53.2166,121.6127,109.6365,250.4759,0.0013794,0.00021765,0.0,0 STARLINK-3747,1 52306U 22041AX  24231.10161916  .00021765  00000-0  13794-2 0  9999,2 52306  53.2166 121.6127 0001216 109.6365 250.4759 15.08892174130024,6917.721,95.434,540.427,538.745,0.0
52306.0,STARLINK-3747,PAYLOAD,2024-08-18 19:55:35,15.08819681,0.0001093,53.2165,118.3423,39.2578,320.8493,-0.00060441,-9.889e-05,0.0,0 STARLINK-3747,1 52306U 22041AX  24231.83026872 -.00009889  00000-0 -60441-3 0  9997,2 52306  53.2165 118.3423 0001093  39.2578 320.8493 15.08819681130133,6917.942,95.439,540.564,539.051,0.0
52306.0,STARLINK-3747,PAYLOAD,2024-08-18 21:30:58,15.08817886,0.0001062,53.2165,118.0455,60.9071,299.2027,-0.00062983,-0.00010291,0.0,0 STARLINK-3747,1 52306U 22041AX  24231.89651004 -.00010291  00000-0 -62983-3 0  9996,2 52306  53.2165 118.0455 0001062  60.9071 299.2027 15.08817886130148,6917.948,95.439,540.548,539.078,0.0
52306.0,STARLINK-3747,PAYLOAD,2024-08-18 23:06:21,15.08817737,0.0001155,53.2163,117.747,92.0806,268.0319,-0.00062361,-0.00010193,0.0,0 STARLINK-3747,1 52306U 22041AX  24231.96274987 -.00010193  00000-0 -62361-3 0  9996,2 52306  53.2163 117.7470 0001155  92.0806 268.0319 15.08817737130158,6917.948,95.439,540.612,539.014,0.0
52306.0,STARLINK-3747,PAYLOAD,2024-08-19 16:35:36,15.08823192,7.53e-05,53.2159,114.4695,110.4212,249.6861,-0.00036313,-6.059e-05,0.0,0 STARLINK-3747,1 52306U 22041AX  24232.69139497 -.00006059  00000-0 -36313-3 0  9997,2 52306  53.2159 114.4695 0000753 110.4212 249.6861 15.08823192130266,6917.932,95.439,540.318,539.276,0.0
52306.0,STARLINK-3747,PAYLOAD,2024-08-20 08:29:28,15.08846343,9.37e-05,53.2154,111.5028,76.0163,284.0934,0.001204,0.00018929,0.0,0 STARLINK-3747,1 52306U 22041AX  24233.35380166  .00018929  00000-0  12040-2 0  9999,2 52306  53.2154 111.5028 0000937  76.0163 284.0934 15.08846343130363,6917.861,95.437,540.374,539.078,0.0
52306.0,STARLINK-3747,PAYLOAD,2024-08-21 01:58:42,15.08866389,9.65e-05,53.216,108.2322,94.0842,266.0261,0.0010505,0.00016482,0.0,0 STARLINK-3747,1 52306U 22041AX  24234.08243478  .00016482  00000-0  10505-2 0  9990,2 52306  53.2160 108.2322 0000965  94.0842 266.0261 15.08866389130472,6917.8,95.436,540.332,538.997,0.0
52306.0,STARLINK-3747,PAYLOAD,2024-08-21 19:27:56,15.08852904,0.0001847,53.215,104.9537,144.2689,215.8427,0.00028112,4.19e-05,0.0,0 STARLINK-3747,1 52306U 22041AX  24234.81107428  .00004190  00000-0  28112-3 0  9992,2 52306  53.2150 104.9537 0001847 144.2689 215.8427 15.08852904130585,6917.841,95.437,540.984,538.428,0.0
52306.0,STARLINK-3747,PAYLOAD,2024-08-21 21:03:20,15.08847957,8.9e-05,53.2152,104.656,108.3175,251.7914,0.00015888,2.242e-05,0.0,0 STARLINK-3747,1 52306U 22041AX  24234.87731669  .00002242  00000-0  15888-3 0  9990,2 52306  53.2152 104.6560 0000890 108.3175 251.7914 15.08847957130591,6917.856,95.437,540.337,539.105,0.0
